[Satellite]
VERSION=1.1
NAME=XW-2A
NICKNAME=XW-2A
TLE1=1 40903U 15049E   22342.57123135  .00045418  00000+0  48570-3 0  9993
TLE2=2 40903  97.1548  42.1446 0007399 180.4227 315.6066 15.63731021406360
STATUS=0
